[{"OBJECT_NAME":"VSP RF B1","OBJECT_ID":"2024-043AR","EPOCH":"2026-03-09T22:40:29.479296","MEAN_MOTION":15.26694159,"ECCENTRICITY":0.00102608,"INCLINATION":97.5446,"RA_OF_ASC_NODE":204.7052,"ARG_OF_PERICENTER":220.7435,"MEAN_ANOMALY":139.3037,"EPHEMERIS_TYPE":0,"CLASSIFICATION_TYPE":"U","NORAD_CAT_ID":59137,"ELEMENT_SET_NO":999,"REV_AT_EPOCH":11187,"BSTAR":0.00024406819,"MEAN_MOTION_DOT":6.341e-5,"MEAN_MOTION_DDOT":0},{"OBJECT_NAME":"STARLINK-36049","OBJECT_ID":"2025-278Q","EPOCH":"2026-03-09T19:21:59.994432","MEAN_MOTION":15.27568749,"ECCENTRICITY":2.147e-5,"INCLINATION":42.9964,"RA_OF_ASC_NODE":113.9982,"ARG_OF_PERICENTER":329.738,"MEAN_ANOMALY":30.3459,"EPHEMERIS_TYPE":0,"CLASSIFICATION_TYPE":"U","NORAD_CAT_ID":66805,"ELEMENT_SET_NO":999,"REV_AT_EPOCH":1522,"BSTAR":0.00079065186,"MEAN_MOTION_DOT":0.00021551,"MEAN_MOTION_DDOT":0}]
